{"type": "FeatureCollection", "features": [ {"type": "Feature", "properties": {"norad_id": 64901, "name": "CO3D 4", "group": "resource", "lat": -14.758078332778759, "lon": -128.26400547668865, "alt_km": 509.36433602131456, "timestamp": "2025-12-03T04:52:29.299500+00:00", "meta": {"OBJECT_NAME": "CO3D 4", "OBJECT_ID": "2025-156C", "EPOCH": "2025-12-01T18:50:45.474720", "MEAN_MOTION": 15.20204195, "ECCENTRICITY": 0.00012108, "INCLINATION": 97.4354, "RA_OF_ASC_NODE": 52.3098, "ARG_OF_PERICENTER": 238.3057, "MEAN_ANOMALY": 121.806, "EPHEMERIS_TYPE": 0, "CLASSIFICATION_TYPE": "U", "NORAD_CAT_ID": 64901, "ELEMENT_SET_NO": 999, "REV_AT_EPOCH": 1954, "BSTAR": -1.4420799e-05, "MEAN_MOTION_DOT": -3.8e-06, "MEAN_MOTION_DDOT": 0}, "tle": {"line1": "1 64901U 25156C   25335.78524855 -.00000380  00000+0 -14421-4 0  9999", "line2": "2 64901  97.4354  52.3098 0001210 238.3057 121.8060 15.20204195 19549"}}, "geometry": {"type": "Point", "coordinates": [-128.26400547668865, -14.758078332778759]}}, {"type": "Feature", "properties": {"norad_id": 64902, "name": "CO3D 2", "group": "resource", "lat": 16.869038081900303, "lon": 51.336617024940544, "alt_km": 505.90718960613685, "timestamp": "2025-12-03T04:52:29.299517+00:00", "meta": {"OBJECT_NAME": "CO3D 2", "OBJECT_ID": "2025-156D", "EPOCH": "2025-12-02T19:19:18.288192", "MEAN_MOTION": 15.20207564, "ECCENTRICITY": 9.81e-05, "INCLINATION": 97.4354, "RA_OF_ASC_NODE": 53.2138, "ARG_OF_PERICENTER": 113.8728, "MEAN_ANOMALY": 246.261, "EPHEMERIS_TYPE": 0, "CLASSIFICATION_TYPE": "U", "NORAD_CAT_ID": 64902, "ELEMENT_SET_NO": 999, "REV_AT_EPOCH": 1969, "BSTAR": 0.000379, "MEAN_MOTION_DOT": 8.147e-05, "MEAN_MOTION_DDOT": 0}, "tle": {"line1": "1 64902U 25156D   25336.80507278  .00008147  00000+0  37900-3 0  9997", "line2": "2 64902  97.4354  53.2138 0000981 113.8728 246.2610 15.20207564 19693"}}, "geometry": {"type": "Point", "coordinates": [51.336617024940544, 16.869038081900303]}}, {"type": "Feature", "properties": {"norad_id": 64903, "name": "CO3D 1", "group": "resource", "lat": 16.04449060014218, "lon": 51.453737582061514, "alt_km": 506.10890140443644, "timestamp": "2025-12-03T04:52:29.299534+00:00", "meta": {"OBJECT_NAME": "CO3D 1", "OBJECT_ID": "2025-156E", "EPOCH": "2025-12-02T19:19:31.503072", "MEAN_MOTION": 15.20211243, "ECCENTRICITY": 0.0001042, "INCLINATION": 97.4354, "RA_OF_ASC_NODE": 53.2139, "ARG_OF_PERICENTER": 119.5671, "MEAN_ANOMALY": 240.5668, "EPHEMERIS_TYPE": 0, "CLASSIFICATION_TYPE": "U", "NORAD_CAT_ID": 64903, "ELEMENT_SET_NO": 999, "REV_AT_EPOCH": 1969, "BSTAR": 0.00039169, "MEAN_MOTION_DOT": 8.423e-05, "MEAN_MOTION_DDOT": 0}, "tle": {"line1": "1 64903U 25156E   25336.80522573  .00008423  00000+0  39169-3 0  9999", "line2": "2 64903  97.4354  53.2139 0001042 119.5671 240.5668 15.20211243 19693"}}, "geometry": {"type": "Point", "coordinates": [51.453737582061514, 16.04449060014218]}}, {"type": "Feature", "properties": {"norad_id": 66514, "name": "SENTINEL-6B", "group": "resource", "lat": -42.88198823122676, "lon": 157.9497987666467, "alt_km": 1317.1565661526301, "timestamp": "2025-12-03T04:52:29.299545+00:00", "meta": {"OBJECT_NAME": "SENTINEL-6B", "OBJECT_ID": "2025-264A", "EPOCH": "2025-12-02T19:47:28.546080", "MEAN_MOTION": 12.85877469, "ECCENTRICITY": 0.001153, "INCLINATION": 66.0389, "RA_OF_ASC_NODE": 183.1329, "ARG_OF_PERICENTER": 268.7343, "MEAN_ANOMALY": 91.2354, "EPHEMERIS_TYPE": 0, "CLASSIFICATION_TYPE": "U", "NORAD_CAT_ID": 66514, "ELEMENT_SET_NO": 999, "REV_AT_EPOCH": 201, "BSTAR": 0.00033946, "MEAN_MOTION_DOT": 2.2e-07, "MEAN_MOTION_DDOT": 0}, "tle": {"line1": "1 66514U 25264A   25336.82463595  .00000022  00000+0  33946-3 0  9993", "line2": "2 66514  66.0389 183.1329 0011530 268.7343  91.2354 12.85877469  2010"}}, "geometry": {"type": "Point", "coordinates": [157.9497987666467, -42.88198823122676]}}]}